{"type": "FeatureCollection", "features": [ {"type": "Feature", "properties": {"norad_id": 44476, "name": "INTELSAT 39 (IS-39)", "group": "intelsat", "lat": -0.03307031766825325, "lon": -132.27093436365558, "alt_km": 35785.44400716257, "timestamp": "2025-12-10T05:46:13.465605+00:00", "meta": {"OBJECT_NAME": "INTELSAT 39 (IS-39)", "OBJECT_ID": "2019-049B", "EPOCH": "2025-12-09T13:52:05.984256", "MEAN_MOTION": 1.00270059, "ECCENTRICITY": 0.0001014, "INCLINATION": 0.0164, "RA_OF_ASC_NODE": 318.5209, "ARG_OF_PERICENTER": 194.0541, "MEAN_ANOMALY": 195.9656, "EPHEMERIS_TYPE": 0, "CLASSIFICATION_TYPE": "U", "NORAD_CAT_ID": 44476, "ELEMENT_SET_NO": 999, "REV_AT_EPOCH": 2322, "BSTAR": 0, "MEAN_MOTION_DOT": 3.6e-07, "MEAN_MOTION_DDOT": 0}, "tle": {"line1": "1 44476U 19049B   25343.57784704  .00000036  00000+0  00000+0 0  9994", "line2": "2 44476   0.0164 318.5209 0001014 194.0541 195.9656  1.00270059 23220"}}, "geometry": {"type": "Point", "coordinates": [-132.27093436365558, -0.03307031766825325]}}, {"type": "Feature", "properties": {"norad_id": 46114, "name": "GALAXY 30 (G-30)", "group": "intelsat", "lat": 0.025064739329763597, "lon": 40.784617894346134, "alt_km": 35794.20946156949, "timestamp": "2025-12-10T05:46:13.465616+00:00", "meta": {"OBJECT_NAME": "GALAXY 30 (G-30)", "OBJECT_ID": "2020-056C", "EPOCH": "2025-12-09T09:54:15.136416", "MEAN_MOTION": 1.00271447, "ECCENTRICITY": 0.0002386, "INCLINATION": 0.0167, "RA_OF_ASC_NODE": 3.1394, "ARG_OF_PERICENTER": 254.3856, "MEAN_ANOMALY": 204.4379, "EPHEMERIS_TYPE": 0, "CLASSIFICATION_TYPE": "U", "NORAD_CAT_ID": 46114, "ELEMENT_SET_NO": 999, "REV_AT_EPOCH": 1939, "BSTAR": 0, "MEAN_MOTION_DOT": 3.9e-07, "MEAN_MOTION_DDOT": 0}, "tle": {"line1": "1 46114U 20056C   25343.41267519  .00000039  00000+0  00000+0 0  9991", "line2": "2 46114   0.0167   3.1394 0002386 254.3856 204.4379  1.00271447 19391"}}, "geometry": {"type": "Point", "coordinates": [40.784617894346134, 0.025064739329763597]}}, {"type": "Feature", "properties": {"norad_id": 54026, "name": "GALAXY 33 (G-33)", "group": "intelsat", "lat": 0.026717297782794677, "lon": 32.793260109479974, "alt_km": 35793.38909952894, "timestamp": "2025-12-10T05:46:13.465628+00:00", "meta": {"OBJECT_NAME": "GALAXY 33 (G-33)", "OBJECT_ID": "2022-128A", "EPOCH": "2025-12-09T14:39:08.977248", "MEAN_MOTION": 1.00272312, "ECCENTRICITY": 0.0002224, "INCLINATION": 0.013, "RA_OF_ASC_NODE": 307.6634, "ARG_OF_PERICENTER": 302.0714, "MEAN_ANOMALY": 275.6551, "EPHEMERIS_TYPE": 0, "CLASSIFICATION_TYPE": "U", "NORAD_CAT_ID": 54026, "ELEMENT_SET_NO": 999, "REV_AT_EPOCH": 1184, "BSTAR": 0, "MEAN_MOTION_DOT": 8.1e-07, "MEAN_MOTION_DDOT": 0}, "tle": {"line1": "1 54026U 22128A   25343.61052057  .00000081  00000+0  00000+0 0  9992", "line2": "2 54026   0.0130 307.6634 0002224 302.0714 275.6551  1.00272312 11842"}}, "geometry": {"type": "Point", "coordinates": [32.793260109479974, 0.026717297782794677]}}, {"type": "Feature", "properties": {"norad_id": 54027, "name": "GALAXY 34 (G-34)", "group": "intelsat", "lat": 0.03955718609213824, "lon": 36.84675176898578, "alt_km": 35791.08610182538, "timestamp": "2025-12-10T05:46:13.465640+00:00", "meta": {"OBJECT_NAME": "GALAXY 34 (G-34)", "OBJECT_ID": "2022-128B", "EPOCH": "2025-12-09T14:45:08.313120", "MEAN_MOTION": 1.00270553, "ECCENTRICITY": 0.0001281, "INCLINATION": 0.025, "RA_OF_ASC_NODE": 324.9472, "ARG_OF_PERICENTER": 281.4096, "MEAN_ANOMALY": 284.6001, "EPHEMERIS_TYPE": 0, "CLASSIFICATION_TYPE": "U", "NORAD_CAT_ID": 54027, "ELEMENT_SET_NO": 999, "REV_AT_EPOCH": 1201, "BSTAR": 0, "MEAN_MOTION_DOT": 0, "MEAN_MOTION_DDOT": 0}, "tle": {"line1": "1 54027U 22128B   25343.61467955  .00000000  00000+0  00000+0 0  9991", "line2": "2 54027   0.0250 324.9472 0001281 281.4096 284.6001  1.00270553 12018"}}, "geometry": {"type": "Point", "coordinates": [36.84675176898578, 0.03955718609213824]}}, {"type": "Feature", "properties": {"norad_id": 54243, "name": "GALAXY 31 (G-31)", "group": "intelsat", "lat": 0.01832984520799474, "lon": 44.79323696146152, "alt_km": 35791.62148998904, "timestamp": "2025-12-10T05:46:13.465651+00:00", "meta": {"OBJECT_NAME": "GALAXY 31 (G-31)", "OBJECT_ID": "2022-153A", "EPOCH": "2025-12-09T14:42:38.643264", "MEAN_MOTION": 1.00271999, "ECCENTRICITY": 0.0001898, "INCLINATION": 0.0186, "RA_OF_ASC_NODE": 256.7683, "ARG_OF_PERICENTER": 13.5547, "MEAN_ANOMALY": 267.9435, "EPHEMERIS_TYPE": 0, "CLASSIFICATION_TYPE": "U", "NORAD_CAT_ID": 54243, "ELEMENT_SET_NO": 999, "REV_AT_EPOCH": 523, "BSTAR": 0, "MEAN_MOTION_DOT": 1.6e-07, "MEAN_MOTION_DDOT": 0}, "tle": {"line1": "1 54243U 22153A   25343.61294726  .00000016  00000+0  00000+0 0  9990", "line2": "2 54243   0.0186 256.7683 0001898  13.5547 267.9435  1.00271999  5237"}}, "geometry": {"type": "Point", "coordinates": [44.79323696146152, 0.01832984520799474]}}, {"type": "Feature", "properties": {"norad_id": 54244, "name": "GALAXY 32 (G-32)", "group": "intelsat", "lat": 0.027548392267691978, "lon": 74.79124895476997, "alt_km": 35793.20050134223, "timestamp": "2025-12-10T05:46:13.465662+00:00", "meta": {"OBJECT_NAME": "GALAXY 32 (G-32)", "OBJECT_ID": "2022-153B", "EPOCH": "2025-12-09T12:24:44.332992", "MEAN_MOTION": 1.00270521, "ECCENTRICITY": 0.00027242, "INCLINATION": 0.0086, "RA_OF_ASC_NODE": 338.62, "ARG_OF_PERICENTER": 330.4778, "MEAN_ANOMALY": 224.5904, "EPHEMERIS_TYPE": 0, "CLASSIFICATION_TYPE": "U", "NORAD_CAT_ID": 54244, "ELEMENT_SET_NO": 999, "REV_AT_EPOCH": 1124, "BSTAR": 0, "MEAN_MOTION_DOT": -1.72e-06, "MEAN_MOTION_DDOT": 0}, "tle": {"line1": "1 54244U 22153B   25343.51717978 -.00000172  00000+0  00000+0 0  9993", "line2": "2 54244   0.0086 338.6200 0002724 330.4778 224.5904  1.00270521 11246"}}, "geometry": {"type": "Point", "coordinates": [74.79124895476997, 0.027548392267691978]}}, {"type": "Feature", "properties": {"norad_id": 54741, "name": "GALAXY 35 (G-35)", "group": "intelsat", "lat": 0.011712932732006827, "lon": 72.68923699554705, "alt_km": 35797.25232435266, "timestamp": "2025-12-10T05:46:13.465674+00:00", "meta": {"OBJECT_NAME": "GALAXY 35 (G-35)", "OBJECT_ID": "2022-170A", "EPOCH": "2025-12-09T12:23:46.557312", "MEAN_MOTION": 1.00271041, "ECCENTRICITY": 0.00026435, "INCLINATION": 0.0265, "RA_OF_ASC_NODE": 90.9094, "ARG_OF_PERICENTER": 174.1639, "MEAN_ANOMALY": 266.2888, "EPHEMERIS_TYPE": 0, "CLASSIFICATION_TYPE": "U", "NORAD_CAT_ID": 54741, "ELEMENT_SET_NO": 999, "REV_AT_EPOCH": 1099, "BSTAR": 0, "MEAN_MOTION_DOT": -1.6e-06, "MEAN_MOTION_DDOT": 0}, "tle": {"line1": "1 54741U 22170A   25343.51651108 -.00000160  00000+0  00000+0 0  9993", "line2": "2 54741   0.0265  90.9094 0002643 174.1639 266.2888  1.00271041 10998"}}, "geometry": {"type": "Point", "coordinates": [72.68923699554705, 0.011712932732006827]}}, {"type": "Feature", "properties": {"norad_id": 54742, "name": "GALAXY 36 (G-36)", "group": "intelsat", "lat": 0.021956087049993574, "lon": 76.76915839822601, "alt_km": 35788.54581937411, "timestamp": "2025-12-10T05:46:13.465685+00:00", "meta": {"OBJECT_NAME": "GALAXY 36 (G-36)", "OBJECT_ID": "2022-170B", "EPOCH": "2025-12-09T12:25:42.117312", "MEAN_MOTION": 1.00270711, "ECCENTRICITY": 5.692e-05, "INCLINATION": 0.009, "RA_OF_ASC_NODE": 28.1287, "ARG_OF_PERICENTER": 256.8245, "MEAN_ANOMALY": 250.976, "EPHEMERIS_TYPE": 0, "CLASSIFICATION_TYPE": "U", "NORAD_CAT_ID": 54742, "ELEMENT_SET_NO": 999, "REV_AT_EPOCH": 1087, "BSTAR": 0, "MEAN_MOTION_DOT": -1.83e-06, "MEAN_MOTION_DDOT": 0}, "tle": {"line1": "1 54742U 22170B   25343.51784858 -.00000183  00000+0  00000+0 0  9998", "line2": "2 54742   0.0090  28.1287 0000569 256.8245 250.9760  1.00270711 10877"}}, "geometry": {"type": "Point", "coordinates": [76.76915839822601, 0.021956087049993574]}}, {"type": "Feature", "properties": {"norad_id": 57493, "name": "GALAXY 37 (G-37)", "group": "intelsat", "lat": 0.02474419112925896, "lon": 38.795042064720406, "alt_km": 35792.98606140634, "timestamp": "2025-12-10T05:46:13.465696+00:00", "meta": {"OBJECT_NAME": "GALAXY 37 (G-37)", "OBJECT_ID": "2023-112A", "EPOCH": "2025-12-09T14:40:53.808960", "MEAN_MOTION": 1.00271712, "ECCENTRICITY": 0.0002326, "INCLINATION": 0.0109, "RA_OF_ASC_NODE": 345.3926, "ARG_OF_PERICENTER": 278.6766, "MEAN_ANOMALY": 267.7583, "EPHEMERIS_TYPE": 0, "CLASSIFICATION_TYPE": "U", "NORAD_CAT_ID": 57493, "ELEMENT_SET_NO": 999, "REV_AT_EPOCH": 864, "BSTAR": 0, "MEAN_MOTION_DOT": 5e-07, "MEAN_MOTION_DDOT": 0}, "tle": {"line1": "1 57493U 23112A   25343.61173390  .00000050  00000+0  00000+0 0  9997", "line2": "2 57493   0.0109 345.3926 0002326 278.6766 267.7583  1.00271712  8644"}}, "geometry": {"type": "Point", "coordinates": [38.795042064720406, 0.02474419112925896]}}]}